SPACEMOBILE-003         
1 61045U 24163A   26188.58983397  .00000822  00000+0  51476-4 0  9997
2 61045  52.9711 215.6104 0005935 173.0520 187.0558 15.20789545100878
SPACEMOBILE-005         
1 61046U 24163B   26188.57326854  .00003400  00000+0  16697-3 0  9996
2 61046  52.9812 215.6355 0007892 171.2745 188.8388 15.20769377100862
SPACEMOBILE-001         
1 61047U 24163C   26188.50607942  .00001273  00000+0  71651-4 0  9998
2 61047  52.9752 215.6585 0007752 171.0836 189.0297 15.20810880100852
SPACEMOBILE-002         
1 61048U 24163D   26188.55582850  .00002498  00000+0  12630-3 0  9995
2 61048  52.9752 215.4702 0007330 175.4334 184.6729 15.20854546100864
SPACEMOBILE-004         
1 61049U 24163E   26187.48682539  .00011231  00000+0  51661-3 0  9994
2 61049  52.9667 220.1743 0007073 196.8401 163.2360 15.20801145100708
SPACEMOBILE-001 DEB     
1 62369U 24163F   26188.04222018  .00005842  00000+0  17889-3 0  9990
2 62369  52.9926 185.8390 0005979 222.2687 137.7854 15.35284778 89556
SPACEMOBILE-002 DEB     
1 62370U 24163G   26188.32253826  .00013787  00000+0  31036-3 0  9991
2 62370  52.9409 169.1619 0004440 256.8724 103.1785 15.43600518101479
SPACEMOBILE-003 DEB     
1 62371U 24163H   26188.02070423  .00013382  00000+0  32495-3 0  9990
2 62371  52.9689 177.3452 0005670 206.7381 153.3330 15.41343868 94941
SPACEMOBILE-004 DEB     
1 62372U 24163J   26188.42441472  .00010499  00000+0  26343-3 0  9992
2 62372  52.9833 175.0276 0002881 231.4307 128.6438 15.40609926 98077
SPACEMOBILE-005 DEB     
1 62373U 24163K   26187.99546414  .00006648  00000+0  20671-3 0  9995
2 62373  52.9737 190.9324 0006000 200.3273 159.7489 15.34552491101168
SPACEMOBILE-006         
1 67232U 25309A   26188.18193634  .00000667  00000+0  47122-4 0  9997
2 67232  52.9952 240.0450 0010676 189.1004 170.9798 15.18643108 29630
SPACEMOBILE-008         
1 69589U 26139A   26188.42315776  .00000613  00000+0  51460-4 0  9997
2 69589  52.9937 170.6933 0004638  37.6326 322.4989 15.12794365  3048
SPACEMOBILE-009         
1 69590U 26139B   26188.35850118  .00000601  00000+0  50953-4 0  9998
2 69590  52.9928 170.9976 0004891  32.8078 327.3216 15.12687590  3039
SPACEMOBILE-010         
1 69591U 26139C   26188.42681726  .00000587  00000+0  50381-4 0  9992
2 69591  52.9932 170.7141 0004773  24.0576 336.0637 15.12518827  3054
