{"fetched_at":"2026-07-08T07:04:18.556Z","source":"https://celestrak.org/NORAD/elements/gp.php?NAME=SPACEMOBILE&FORMAT=JSON","constellation":"ast-spacemobile","records":[{"OBJECT_NAME":"SPACEMOBILE-003","OBJECT_ID":"2024-163A","EPOCH":"2026-07-07T14:09:21.655008","CLASSIFICATION_TYPE":"U","MEAN_MOTION":15.20789545,"ECCENTRICITY":0.0005935,"INCLINATION":52.9711,"RA_OF_ASC_NODE":215.6104,"ARG_OF_PERICENTER":173.052,"MEAN_ANOMALY":187.0558,"EPHEMERIS_TYPE":0,"NORAD_CAT_ID":61045,"ELEMENT_SET_NO":999,"REV_AT_EPOCH":10087,"BSTAR":0.000051476,"MEAN_MOTION_DOT":0.00000822,"MEAN_MOTION_DDOT":0},{"OBJECT_NAME":"SPACEMOBILE-005","OBJECT_ID":"2024-163B","EPOCH":"2026-07-07T13:45:30.401856","CLASSIFICATION_TYPE":"U","MEAN_MOTION":15.20769377,"ECCENTRICITY":0.0007892,"INCLINATION":52.9812,"RA_OF_ASC_NODE":215.6355,"ARG_OF_PERICENTER":171.2745,"MEAN_ANOMALY":188.8388,"EPHEMERIS_TYPE":0,"NORAD_CAT_ID":61046,"ELEMENT_SET_NO":999,"REV_AT_EPOCH":10086,"BSTAR":0.00016697,"MEAN_MOTION_DOT":0.000034,"MEAN_MOTION_DDOT":0},{"OBJECT_NAME":"SPACEMOBILE-001","OBJECT_ID":"2024-163C","EPOCH":"2026-07-07T12:08:45.261888","CLASSIFICATION_TYPE":"U","MEAN_MOTION":15.2081088,"ECCENTRICITY":0.0007752,"INCLINATION":52.9752,"RA_OF_ASC_NODE":215.6585,"ARG_OF_PERICENTER":171.0836,"MEAN_ANOMALY":189.0297,"EPHEMERIS_TYPE":0,"NORAD_CAT_ID":61047,"ELEMENT_SET_NO":999,"REV_AT_EPOCH":10085,"BSTAR":0.000071651,"MEAN_MOTION_DOT":0.00001273,"MEAN_MOTION_DDOT":0},{"OBJECT_NAME":"SPACEMOBILE-002","OBJECT_ID":"2024-163D","EPOCH":"2026-07-07T13:20:23.582400","CLASSIFICATION_TYPE":"U","MEAN_MOTION":15.20854546,"ECCENTRICITY":0.000733,"INCLINATION":52.9752,"RA_OF_ASC_NODE":215.4702,"ARG_OF_PERICENTER":175.4334,"MEAN_ANOMALY":184.6729,"EPHEMERIS_TYPE":0,"NORAD_CAT_ID":61048,"ELEMENT_SET_NO":999,"REV_AT_EPOCH":10086,"BSTAR":0.0001263,"MEAN_MOTION_DOT":0.00002498,"MEAN_MOTION_DDOT":0},{"OBJECT_NAME":"SPACEMOBILE-004","OBJECT_ID":"2024-163E","EPOCH":"2026-07-06T11:41:01.713696","CLASSIFICATION_TYPE":"U","MEAN_MOTION":15.20801145,"ECCENTRICITY":0.0007073,"INCLINATION":52.9667,"RA_OF_ASC_NODE":220.1743,"ARG_OF_PERICENTER":196.8401,"MEAN_ANOMALY":163.236,"EPHEMERIS_TYPE":0,"NORAD_CAT_ID":61049,"ELEMENT_SET_NO":999,"REV_AT_EPOCH":10070,"BSTAR":0.00051660541,"MEAN_MOTION_DOT":0.00011231,"MEAN_MOTION_DDOT":0},{"OBJECT_NAME":"SPACEMOBILE-001 DEB","OBJECT_ID":"2024-163F","EPOCH":"2026-07-07T01:00:47.823552","CLASSIFICATION_TYPE":"U","MEAN_MOTION":15.35284778,"ECCENTRICITY":0.00059798,"INCLINATION":52.9926,"RA_OF_ASC_NODE":185.839,"ARG_OF_PERICENTER":222.2687,"MEAN_ANOMALY":137.7854,"EPHEMERIS_TYPE":0,"NORAD_CAT_ID":62369,"ELEMENT_SET_NO":999,"REV_AT_EPOCH":8955,"BSTAR":0.00017888647,"MEAN_MOTION_DOT":0.00005842,"MEAN_MOTION_DDOT":0},{"OBJECT_NAME":"SPACEMOBILE-002 DEB","OBJECT_ID":"2024-163G","EPOCH":"2026-07-07T07:44:27.305664","CLASSIFICATION_TYPE":"U","MEAN_MOTION":15.43600518,"ECCENTRICITY":0.00044409,"INCLINATION":52.9409,"RA_OF_ASC_NODE":169.1619,"ARG_OF_PERICENTER":256.8724,"MEAN_ANOMALY":103.1785,"EPHEMERIS_TYPE":0,"NORAD_CAT_ID":62370,"ELEMENT_SET_NO":999,"REV_AT_EPOCH":10147,"BSTAR":0.00031036222,"MEAN_MOTION_DOT":0.00013787,"MEAN_MOTION_DDOT":0},{"OBJECT_NAME":"SPACEMOBILE-003 DEB","OBJECT_ID":"2024-163H","EPOCH":"2026-07-07T00:29:48.845472","CLASSIFICATION_TYPE":"U","MEAN_MOTION":15.41343868,"ECCENTRICITY":0.00056701,"INCLINATION":52.9689,"RA_OF_ASC_NODE":177.3452,"ARG_OF_PERICENTER":206.7381,"MEAN_ANOMALY":153.333,"EPHEMERIS_TYPE":0,"NORAD_CAT_ID":62371,"ELEMENT_SET_NO":999,"REV_AT_EPOCH":9494,"BSTAR":0.00032494902,"MEAN_MOTION_DOT":0.00013382,"MEAN_MOTION_DDOT":0},{"OBJECT_NAME":"SPACEMOBILE-004 DEB","OBJECT_ID":"2024-163J","EPOCH":"2026-07-07T10:11:09.431808","CLASSIFICATION_TYPE":"U","MEAN_MOTION":15.40609926,"ECCENTRICITY":0.00028814,"INCLINATION":52.9833,"RA_OF_ASC_NODE":175.0276,"ARG_OF_PERICENTER":231.4307,"MEAN_ANOMALY":128.6438,"EPHEMERIS_TYPE":0,"NORAD_CAT_ID":62372,"ELEMENT_SET_NO":999,"REV_AT_EPOCH":9807,"BSTAR":0.00026343351,"MEAN_MOTION_DOT":0.00010499,"MEAN_MOTION_DDOT":0},{"OBJECT_NAME":"SPACEMOBILE-005 DEB","OBJECT_ID":"2024-163K","EPOCH":"2026-07-06T23:53:28.101696","CLASSIFICATION_TYPE":"U","MEAN_MOTION":15.34552491,"ECCENTRICITY":0.0006,"INCLINATION":52.9737,"RA_OF_ASC_NODE":190.9324,"ARG_OF_PERICENTER":200.3273,"MEAN_ANOMALY":159.7489,"EPHEMERIS_TYPE":0,"NORAD_CAT_ID":62373,"ELEMENT_SET_NO":999,"REV_AT_EPOCH":10116,"BSTAR":0.00020671042,"MEAN_MOTION_DOT":0.00006648,"MEAN_MOTION_DDOT":0},{"OBJECT_NAME":"SPACEMOBILE-006","OBJECT_ID":"2025-309A","EPOCH":"2026-07-07T04:21:59.299776","CLASSIFICATION_TYPE":"U","MEAN_MOTION":15.18643108,"ECCENTRICITY":0.0010676,"INCLINATION":52.9952,"RA_OF_ASC_NODE":240.045,"ARG_OF_PERICENTER":189.1004,"MEAN_ANOMALY":170.9798,"EPHEMERIS_TYPE":0,"NORAD_CAT_ID":67232,"ELEMENT_SET_NO":999,"REV_AT_EPOCH":2963,"BSTAR":0.000047122346,"MEAN_MOTION_DOT":0.00000667,"MEAN_MOTION_DDOT":0},{"OBJECT_NAME":"SPACEMOBILE-008","OBJECT_ID":"2026-139A","EPOCH":"2026-07-07T10:09:20.830464","CLASSIFICATION_TYPE":"U","MEAN_MOTION":15.12794365,"ECCENTRICITY":0.00046387,"INCLINATION":52.9937,"RA_OF_ASC_NODE":170.6933,"ARG_OF_PERICENTER":37.6326,"MEAN_ANOMALY":322.4989,"EPHEMERIS_TYPE":0,"NORAD_CAT_ID":69589,"ELEMENT_SET_NO":999,"REV_AT_EPOCH":304,"BSTAR":0.000051460217,"MEAN_MOTION_DOT":0.00000613,"MEAN_MOTION_DDOT":0},{"OBJECT_NAME":"SPACEMOBILE-009","OBJECT_ID":"2026-139B","EPOCH":"2026-07-07T08:36:14.501952","CLASSIFICATION_TYPE":"U","MEAN_MOTION":15.1268759,"ECCENTRICITY":0.00048916,"INCLINATION":52.9928,"RA_OF_ASC_NODE":170.9976,"ARG_OF_PERICENTER":32.8078,"MEAN_ANOMALY":327.3216,"EPHEMERIS_TYPE":0,"NORAD_CAT_ID":69590,"ELEMENT_SET_NO":999,"REV_AT_EPOCH":303,"BSTAR":0.000050952734,"MEAN_MOTION_DOT":0.00000601,"MEAN_MOTION_DDOT":0},{"OBJECT_NAME":"SPACEMOBILE-010","OBJECT_ID":"2026-139C","EPOCH":"2026-07-07T10:14:37.011264","CLASSIFICATION_TYPE":"U","MEAN_MOTION":15.12518827,"ECCENTRICITY":0.00047738,"INCLINATION":52.9932,"RA_OF_ASC_NODE":170.7141,"ARG_OF_PERICENTER":24.0576,"MEAN_ANOMALY":336.0637,"EPHEMERIS_TYPE":0,"NORAD_CAT_ID":69591,"ELEMENT_SET_NO":999,"REV_AT_EPOCH":305,"BSTAR":0.000050380535,"MEAN_MOTION_DOT":0.00000587,"MEAN_MOTION_DDOT":0}]}
